{
  "norad_id": 66491,
  "name": "STARLINK-35663",
  "history": [
    {
      "epoch": "2026-03-28T18:08:52.362240Z",
      "apogee_km": 483.9491675822028,
      "perigee_km": 481.9800314231452,
      "latitude_deg": -1.6073740093775913e-05,
      "longitude_deg": 144.7302641069379,
      "height_km": 482.7213880564828,
      "semi_major_axis_km": 6861.101599502674,
      "eccentricity": 0.0001435,
      "inclination_deg": 43.0023,
      "raan_deg": 243.1205,
      "arg_perigee_deg": 271.1756,
      "mean_anomaly_deg": 88.8931,
      "mean_motion_rev_day": 15.27608219
    }
  ]
}