{"fetched_at":"2026-03-30T13:17:50Z","count":15418,"tles":[{"name":"STARLINK-35663","line1":"1 66491U 25263G   26087.75616160  .00024263  00000+0  88755-3 0  9991","line2":"2 66491  43.0023 243.1205 0001435 271.1756  88.8931 15.27608219 21819","category":"Starlink"}]}